{
"type": "FeatureCollection",
"name": "crowns",
"crs": { "type": "name", "properties": { "name": "urn:ogc:def:crs:OGC:1.3:CRS84" } },
"features": [
{ "type": "Feature", "properties": { "treeID": 1, "XTOP": 47202.05, "YTOP": 23925.96, "ZTOP": 37.13 }, "geometry": { "type": "Polygon", "coordinates": [ [ [ -122.458869372466509, 37.749186548437656 ], [ -122.458873228794232, 37.749173574299334 ], [ -122.458894897691877, 37.749146093334993 ], [ -122.458909986770166, 37.749129244211943 ], [ -122.458913277028699, 37.749126901462809 ], [ -122.458915092466285, 37.749126631037008 ], [ -122.458917134891635, 37.749126811074831 ], [ -122.458928027852366, 37.749127981500408 ], [ -122.458994977061295, 37.749158969491852 ], [ -122.459040479939475, 37.749180679186814 ], [ -122.459041501273632, 37.749181760262474 ], [ -122.459050466655697, 37.749194012653113 ], [ -122.459052055467737, 37.749196264935279 ], [ -122.459053644312831, 37.749198787505911 ], [ -122.459058183925706, 37.749206445331311 ], [ -122.459058864958337, 37.749208337298455 ], [ -122.459059432611852, 37.749210950043668 ], [ -122.459014047897739, 37.749228161891097 ], [ -122.459004630527275, 37.749231406072923 ], [ -122.458941997255209, 37.749235825553448 ], [ -122.458929629401808, 37.749236276971921 ], [ -122.45891317646452, 37.749234476293942 ], [ -122.458904666101873, 37.74923168395604 ], [ -122.458876864837848, 37.749216279608667 ], [ -122.458872779734975, 37.749213847319758 ], [ -122.458869942672635, 37.749210604071294 ], [ -122.458867559188249, 37.749204928192135 ], [ -122.458869372466509, 37.749186548437656 ] ] ] } },
{ "type": "Feature", "properties": { "treeID": 2, "XTOP": 47215.79, "YTOP": 23933.46, "ZTOP": 16.44 }, "geometry": { "type": "Polygon", "coordinates": [ [ [ -122.458928709541297, 37.749135369334539 ], [ -122.458928822770034, 37.749133387210271 ], [ -122.458930070570162, 37.749130594134527 ], [ -122.458930864773336, 37.749130053497353 ], [ -122.458948110665119, 37.749121132668712 ], [ -122.458964563632492, 37.749123383822706 ], [ -122.458967060034098, 37.749124464786817 ], [ -122.458973301071055, 37.749127437485377 ], [ -122.458984194610039, 37.749133383002629 ], [ -122.45899020880185, 37.749137076486917 ], [ -122.458991230080173, 37.749137707082198 ], [ -122.458993386114685, 37.749139058360221 ], [ -122.458996109538262, 37.749140860075741 ], [ -122.459002237274589, 37.749145184223941 ], [ -122.459008251555602, 37.749149598476635 ], [ -122.4590175567606, 37.749157165843165 ], [ -122.459020053284377, 37.749159237863992 ], [ -122.459027316021249, 37.74916626480902 ], [ -122.459032082223857, 37.74917112963692 ], [ -122.459034238369611, 37.749173381875849 ], [ -122.459035600159183, 37.749174913406307 ], [ -122.459039458572462, 37.749179327822652 ], [ -122.459040253071308, 37.749181219781221 ], [ -122.45903843781916, 37.749183021843784 ], [ -122.459033899217374, 37.749183652864893 ], [ -122.458990441338216, 37.749183385899229 ], [ -122.458954583607053, 37.749165369395456 ], [ -122.458949704094863, 37.749161765919375 ], [ -122.458928709541297, 37.749135369334539 ] ] ] } },
{ "type": "Feature", "properties": { "treeID": 3, "XTOP": 47220.71, "YTOP": 23933.03, "ZTOP": 17.22 }, "geometry": { "type": "Polygon", "coordinates": [ [ [ -122.458994194656952, 37.749256994180918 ], [ -122.45899589632495, 37.74925420106991 ], [ -122.459014617123671, 37.749243748484325 ], [ -122.459015411371169, 37.749243568231243 ], [ -122.459032090666682, 37.749240593780812 ], [ -122.459045139508902, 37.749241673934137 ], [ -122.459049337833648, 37.749242033996545 ], [ -122.459050812927288, 37.749242214075622 ], [ -122.459051834152675, 37.749242394189523 ], [ -122.459067947826284, 37.749253474779358 ], [ -122.459074648698547, 37.749305189462682 ], [ -122.459074648731544, 37.74930545975117 ], [ -122.459073628198269, 37.749310955695826 ], [ -122.459072267241339, 37.749316271474321 ], [ -122.459069431749768, 37.749326002078355 ], [ -122.459068410885976, 37.749328795138013 ], [ -122.459065007870606, 37.749336994150774 ], [ -122.459063533225617, 37.749340508014605 ], [ -122.459062625751713, 37.749342670392338 ], [ -122.459062058558516, 37.749343841686091 ], [ -122.459057974683532, 37.749351590270152 ], [ -122.459050373872174, 37.749363843932386 ], [ -122.459047083892671, 37.749368529185496 ], [ -122.459044701486278, 37.749371862926417 ], [ -122.4590355119865, 37.749382945459423 ], [ -122.459032335023508, 37.749383936760729 ], [ -122.459020874873204, 37.749384298023045 ], [ -122.459012931847511, 37.749381685841946 ], [ -122.459011910598448, 37.749381325535367 ], [ -122.458993412610383, 37.749357992041737 ], [ -122.458992503967636, 37.749350514129404 ], [ -122.458992503858639, 37.749349613167787 ], [ -122.458994194656952, 37.749256994180918 ] ] ] } },
{ "type": "Feature", "properties": { "treeID": 4, "XTOP": 47217.73, "YTOP": 23930.2, "ZTOP": 18.54 }, "geometry": { "type": "Polygon", "coordinates": [ [ [ -122.458637109397699, 37.749219360691249 ], [ -122.458660253088709, 37.749188636200159 ], [ -122.458684304411733, 37.749157190868154 ], [ -122.458749659194595, 37.749138806416539 ], [ -122.458775983407492, 37.749137903497783 ], [ -122.458794819977896, 37.749146911710511 ], [ -122.458865515492533, 37.74919411680586 ], [ -122.458870621968998, 37.749197990556837 ], [ -122.458877092019407, 37.749218351803393 ], [ -122.458879590005481, 37.749232676905685 ], [ -122.458880044928705, 37.749241506295697 ], [ -122.458877663196972, 37.749250516091728 ], [ -122.458874033466685, 37.749260697231819 ], [ -122.458862802213645, 37.749277365867542 ], [ -122.458846011387948, 37.749296737804499 ], [ -122.458828651986721, 37.749305748722591 ], [ -122.458810271387492, 37.749314849810631 ], [ -122.458808455987665, 37.749315480619458 ], [ -122.458776572800105, 37.749324672806701 ], [ -122.458768176048267, 37.749323141796843 ], [ -122.458679895407926, 37.749295939289212 ], [ -122.458676718180925, 37.749294678176831 ], [ -122.458670590514302, 37.749290894588817 ], [ -122.458642559481873, 37.749250893949942 ], [ -122.458637109397699, 37.749219360691249 ] ] ] } },
{ "type": "Feature", "properties": { "treeID": 5, "XTOP": 47227.04, "YTOP": 23925.28, "ZTOP": 22.87 }, "geometry": { "type": "Polygon", "coordinates": [ [ [ -122.459008032954728, 37.749218341868804 ], [ -122.459008373323016, 37.749218071554289 ], [ -122.459019379131362, 37.749214016385125 ], [ -122.45903208692161, 37.749209780892173 ], [ -122.459035150410173, 37.74920878959955 ], [ -122.459036965816438, 37.74920824888337 ], [ -122.459046723923564, 37.749207797653966 ], [ -122.459058751568207, 37.74920896798033 ], [ -122.459060113402899, 37.749210859895165 ], [ -122.459061134858587, 37.74921293202847 ], [ -122.459061475435391, 37.749214373540958 ], [ -122.459061248830949, 37.749217076443379 ], [ -122.459056938358202, 37.749227527929989 ], [ -122.459055917363571, 37.749229239835593 ], [ -122.459041168205985, 37.749242034623492 ], [ -122.459008945059821, 37.749254380265597 ], [ -122.459006902739915, 37.749255101191004 ], [ -122.459001569787574, 37.749255101598408 ], [ -122.459000888919675, 37.749254561073414 ], [ -122.458997484460326, 37.749250867390536 ], [ -122.458997370676897, 37.749248254610414 ], [ -122.458997596956522, 37.749242848823165 ], [ -122.459008032954728, 37.749218341868804 ] ] ] } },
{ "type": "Feature", "properties": { "treeID": 6, "XTOP": 47210.22, "YTOP": 23920.6, "ZTOP": 34.21 }, "geometry": { "type": "Polygon", "coordinates": [ [ [ -122.458786534166649, 37.749123847709519 ], [ -122.458788121925039, 37.749117270570878 ], [ -122.458799126866367, 37.749105917632633 ], [ -122.45880253062623, 37.74910384516663 ], [ -122.45880366523059, 37.749103304504878 ], [ -122.45880661525095, 37.749102313226643 ], [ -122.458814444313163, 37.749101051295057 ], [ -122.458822386884719, 37.749100149739128 ], [ -122.458832712280994, 37.749099428196473 ], [ -122.458842356908221, 37.749098976992478 ], [ -122.458844966741907, 37.749099787662168 ], [ -122.458912823107156, 37.749126451016288 ], [ -122.458901147404305, 37.749221503355024 ], [ -122.458893771843165, 37.749219792084631 ], [ -122.458806738594234, 37.749185652172521 ], [ -122.458804241605819, 37.749179615915878 ], [ -122.458786534166649, 37.749123847709519 ] ] ] } },
{ "type": "Feature", "properties": { "treeID": 7, "XTOP": 47230.24, "YTOP": 23931.4, "ZTOP": 18.38 }, "geometry": { "type": "Polygon", "coordinates": [ [ [ -122.458848167252768, 37.749296647546508 ], [ -122.458848620069958, 37.749287818088305 ], [ -122.458867902309336, 37.749227722496457 ], [ -122.458871419227947, 37.749223037231161 ], [ -122.45887754600588, 37.749219342827033 ], [ -122.458888778626218, 37.749214206498962 ], [ -122.45889456520645, 37.74921222394677 ], [ -122.458984091229397, 37.74921681206132 ], [ -122.459003949954294, 37.749233298144411 ], [ -122.459006787274532, 37.749238613601435 ], [ -122.459011213887749, 37.749250145572354 ], [ -122.459028126631694, 37.749300778323203 ], [ -122.459028807992809, 37.749305373175432 ], [ -122.459027900573048, 37.749307986033728 ], [ -122.458960962612764, 37.749371508937912 ], [ -122.458948140965518, 37.749372771258315 ], [ -122.458936907718538, 37.749372862206741 ], [ -122.458926128199835, 37.749371781869613 ], [ -122.458914440856987, 37.749369980830842 ], [ -122.458913419608535, 37.749369620523424 ], [ -122.45888153296498, 37.74934998196666 ], [ -122.458879603860836, 37.749348630669544 ], [ -122.458860425720971, 37.749330342591364 ], [ -122.458852368230637, 37.749319261368527 ], [ -122.458848168304073, 37.749305476970619 ], [ -122.458848167252768, 37.749296647546508 ] ] ] } },
{ "type": "Feature", "properties": { "treeID": 8, "XTOP": 47234.22, "YTOP": 23927.25, "ZTOP": 25.57 }, "geometry": { "type": "Polygon", "coordinates": [ [ [ -122.459004067143866, 37.749264020928081 ], [ -122.459008605521447, 37.749261497888661 ], [ -122.459066356440374, 37.749230139994737 ], [ -122.459069079726149, 37.749230770458389 ], [ -122.459072031034921, 37.749240320424903 ], [ -122.459072712167199, 37.749243023257449 ], [ -122.459073506843595, 37.749246356754426 ], [ -122.459075096328618, 37.749254104902327 ], [ -122.459075664148102, 37.749258069089912 ], [ -122.45907657293013, 37.749266628155702 ], [ -122.459077141112971, 37.749273565516702 ], [ -122.459077254987264, 37.749276899066047 ], [ -122.45907702936266, 37.749287620527134 ], [ -122.459076462764344, 37.749293657013851 ], [ -122.459075896022881, 37.74929852225042 ], [ -122.459063415154247, 37.749302757730568 ], [ -122.459016325885074, 37.749299427784024 ], [ -122.459005205996277, 37.749298527672487 ], [ -122.458993289395437, 37.749277446079631 ], [ -122.459004067143866, 37.749264020928081 ] ] ] } },
{ "type": "Feature", "properties": { "treeID": 9, "XTOP": 47232.46, "YTOP": 23916.39, "ZTOP": 28.76 }, "geometry": { "type": "Polygon", "coordinates": [ [ [ -122.4587273049045, 37.749127636149041 ], [ -122.458731389468582, 37.749125563634671 ], [ -122.45874035286414, 37.749121418546608 ], [ -122.458747954762416, 37.749118174520596 ], [ -122.458758847113941, 37.749114209480268 ], [ -122.458763385596924, 37.749112587411886 ], [ -122.458769058716356, 37.749110694970419 ], [ -122.458773029939124, 37.749109703617044 ], [ -122.458774618464389, 37.749109613402638 ], [ -122.458778136766824, 37.74911664064178 ], [ -122.458778479700413, 37.749138083504207 ], [ -122.458774962620367, 37.749141417324303 ], [ -122.458768722281206, 37.749144300866099 ], [ -122.458711762899782, 37.749152864225785 ], [ -122.458699734520792, 37.749145297036144 ], [ -122.458699394056822, 37.74914475648427 ], [ -122.458702230476177, 37.749142593966866 ], [ -122.458704386167838, 37.749141062172825 ], [ -122.458715845479091, 37.749133853632578 ], [ -122.458724241489222, 37.749129258106862 ], [ -122.4587273049045, 37.749127636149041 ] ] ] } },
{ "type": "Feature", "properties": { "treeID": 10, "XTOP": 47236.58, "YTOP": 23920.82, "ZTOP": 29.33 }, "geometry": { "type": "Polygon", "coordinates": [ [ [ -122.458752608633461, 37.749132859850477 ], [ -122.458757826315704, 37.74911763321051 ], [ -122.45875850698944, 37.749116552005923 ], [ -122.458760208716214, 37.74911420937908 ], [ -122.458773597241446, 37.749109433286314 ], [ -122.45877450494433, 37.749109162930246 ], [ -122.458780291561979, 37.749107540768286 ], [ -122.458780631951868, 37.749107450646761 ], [ -122.458784489718141, 37.749106549397631 ], [ -122.458787780171392, 37.749105828383009 ], [ -122.458794588011386, 37.749104386336541 ], [ -122.458800828538259, 37.749103124524375 ], [ -122.458804345935548, 37.749102493588516 ], [ -122.458806842227347, 37.749102673594358 ], [ -122.458888665310099, 37.749215467853844 ], [ -122.458889005775788, 37.749216008405163 ], [ -122.458883446592296, 37.749221865075107 ], [ -122.458882652344684, 37.749222045327308 ], [ -122.458876751930475, 37.749220964617827 ], [ -122.458782798416919, 37.749197096172068 ], [ -122.458761237629517, 37.749179619120305 ], [ -122.458752608633461, 37.749132859850477 ] ] ] } },
{ "type": "Feature", "properties": { "treeID": 11, "XTOP": 47239.66, "YTOP": 23920.12, "ZTOP": 30.11 }, "geometry": { "type": "Polygon", "coordinates": [ [ [ -122.458627467766021, 37.74924575957413 ], [ -122.458628261669276, 37.74924260615019 ], [ -122.45862984955933, 37.749237020071632 ], [ -122.45863336584442, 37.749226748851157 ], [ -122.458634613604886, 37.74922350529777 ], [ -122.458637109230139, 37.749217919152585 ], [ -122.458640058733536, 37.749212423070261 ], [ -122.458643575560984, 37.749206836850078 ], [ -122.458649929639435, 37.74920620571077 ], [ -122.458651972192243, 37.74920746690718 ], [ -122.458657192135988, 37.749211430755224 ], [ -122.458657305613499, 37.749211520843062 ], [ -122.458667864602475, 37.74926774007475 ], [ -122.458667864728582, 37.749268821228732 ], [ -122.458666617136956, 37.749273506321089 ], [ -122.458656973692996, 37.749284318569643 ], [ -122.458656406388911, 37.749284588899805 ], [ -122.458651754331541, 37.749285400106864 ], [ -122.458647442612545, 37.749285670711778 ], [ -122.458641088464418, 37.74928576127396 ], [ -122.45863893254726, 37.749285401047331 ], [ -122.458624521177725, 37.749276392486166 ], [ -122.458624066953803, 37.749273329249768 ], [ -122.458623839737285, 37.749270896669913 ], [ -122.458623839580483, 37.749269545227449 ], [ -122.458624632909036, 37.74926143651448 ], [ -122.458626220266368, 37.749251255531554 ], [ -122.458627467766021, 37.74924575957413 ] ] ] } },
{ "type": "Feature", "properties": { "treeID": 12, "XTOP": 47201.93, "YTOP": 23918.89, "ZTOP": 33.95 }, "geometry": { "type": "Polygon", "coordinates": [ [ [ -122.458625772453217, 37.749303421244235 ], [ -122.458624750579673, 37.749297655164433 ], [ -122.458624636966164, 37.749296393826434 ], [ -122.458623955180514, 37.749287924836779 ], [ -122.458623613534968, 37.749277203418067 ], [ -122.458624067152442, 37.749275041076906 ], [ -122.458624974784684, 37.749274140048833 ], [ -122.458630307330353, 37.749270625908032 ], [ -122.458631782392118, 37.74927053570385 ], [ -122.458636661571418, 37.749271346211927 ], [ -122.458651753880488, 37.749281525971782 ], [ -122.458653116314622, 37.749288643468851 ], [ -122.458653686892191, 37.749316483142024 ], [ -122.458652326052004, 37.749323060261965 ], [ -122.458641435623363, 37.749343873274981 ], [ -122.45864030105605, 37.749344774319795 ], [ -122.45863803131391, 37.749341350831905 ], [ -122.458636896432452, 37.749339548991777 ], [ -122.458633718482034, 37.749332071242939 ], [ -122.458631561946177, 37.749326395342493 ], [ -122.458631334938559, 37.74932576468597 ], [ -122.458629405264162, 37.749319458095712 ], [ -122.458629178235654, 37.749318647246852 ], [ -122.458628383567955, 37.749315223650747 ], [ -122.458625772453217, 37.749303421244235 ] ] ] } },
{ "type": "Feature", "properties": { "treeID": 13, "XTOP": 47208.52, "YTOP": 23911.38, "ZTOP": 42.77 }, "geometry": { "type": "Polygon", "coordinates": [ [ [ -122.458636552229876, 37.749306844109128 ], [ -122.458637005407368, 37.749300897729015 ], [ -122.458649823366542, 37.749268011688621 ], [ -122.458651411790441, 37.74926702051421 ], [ -122.4586519791049, 37.749266840280235 ], [ -122.458723806130948, 37.74928692643082 ], [ -122.458726189300165, 37.749289989524023 ], [ -122.45874639006432, 37.749320710819063 ], [ -122.458746503552717, 37.749320891002967 ], [ -122.458745482687462, 37.749323774156004 ], [ -122.4587407177019, 37.749329180279354 ], [ -122.45866810247675, 37.749361530165096 ], [ -122.458657663837641, 37.749364504105742 ], [ -122.45865187708192, 37.749365135203803 ], [ -122.458650515338704, 37.749363964053614 ], [ -122.458648018619101, 37.749360180197925 ], [ -122.458643365571874, 37.749352522365264 ], [ -122.458641890183685, 37.749349819588502 ], [ -122.458637917920015, 37.749341981513368 ], [ -122.458636552229876, 37.749306844109128 ] ] ] } },
{ "type": "Feature", "properties": { "treeID": 14, "XTOP": 47204.97, "YTOP": 23916.62, "ZTOP": 35.26 }, "geometry": { "type": "Polygon", "coordinates": [ [ [ -122.458657084809062, 37.749264137020369 ], [ -122.458677392482045, 37.749238998696725 ], [ -122.458699632149759, 37.749240078211315 ], [ -122.458724482332428, 37.749247734548632 ], [ -122.458762836865318, 37.749270345841026 ], [ -122.458773846502993, 37.749298545121796 ], [ -122.458775549190989, 37.749304311149615 ], [ -122.458773395602122, 37.749323681985416 ], [ -122.458769765269167, 37.749328907833167 ], [ -122.458754447952941, 37.749335305799555 ], [ -122.458750703641655, 37.749336207039235 ], [ -122.45873901682782, 37.749338820695108 ], [ -122.458726195362303, 37.74934161462614 ], [ -122.458693176743409, 37.749344500143316 ], [ -122.458685801385442, 37.749344590783231 ], [ -122.458670596453715, 37.749341798921627 ], [ -122.45866912118035, 37.749340087203024 ], [ -122.458668440261562, 37.749339096195285 ], [ -122.458657084809062, 37.749264137020369 ] ] ] } },
{ "type": "Feature", "properties": { "treeID": 15, "XTOP": 47227.79, "YTOP": 23914.52, "ZTOP": 36.39 }, "geometry": { "type": "Polygon", "coordinates": [ [ [ -122.458651291211936, 37.749205935322337 ], [ -122.458651518093475, 37.749205484824849 ], [ -122.458664792292737, 37.749193140674898 ], [ -122.458670805926857, 37.749192149174824 ], [ -122.458686691113812, 37.749190526274155 ], [ -122.458705074209277, 37.749202868092745 ], [ -122.458707003654837, 37.749207192566246 ], [ -122.458707230662725, 37.74920782322264 ], [ -122.458707911802549, 37.749210706249649 ], [ -122.458707571718264, 37.749213409159779 ], [ -122.458707344953154, 37.749214850715198 ], [ -122.458702579718576, 37.74921809452912 ], [ -122.458697133702557, 37.749221518585429 ], [ -122.458689872171504, 37.749224582390688 ], [ -122.458686468223945, 37.749225123218594 ], [ -122.4586582153335, 37.749228548951706 ], [ -122.458656626753083, 37.74922818868373 ], [ -122.458654016885504, 37.749227107721381 ], [ -122.458651747398065, 37.74922584654167 ], [ -122.458651633721246, 37.749224044626686 ], [ -122.458651291211936, 37.749205935322337 ] ] ] } },
{ "type": "Feature", "properties": { "treeID": 16, "XTOP": 47214.61, "YTOP": 23903.19, "ZTOP": 34.67 }, "geometry": { "type": "Polygon", "coordinates": [ [ [ -122.454446629138587, 37.77147051136069 ], [ -122.454446742472342, 37.771467718385821 ], [ -122.454451508672051, 37.771453663257049 ], [ -122.45445979279917, 37.771429607358243 ], [ -122.454482378334973, 37.771410506186115 ], [ -122.45449406834625, 37.771400865487429 ], [ -122.454531636392502, 37.771388520920461 ], [ -122.454537311359729, 37.771387259360516 ], [ -122.454549228836669, 37.771385366888694 ], [ -122.454560919383155, 37.771384645670182 ], [ -122.45457715000903, 37.771384645040889 ], [ -122.454586911112571, 37.771385095140481 ], [ -122.454610633193866, 37.771391491018441 ], [ -122.454624594078354, 37.771395905166912 ], [ -122.454642414412106, 37.77140698625292 ], [ -122.454650019616579, 37.771417256877285 ], [ -122.454651495286697, 37.771419779502189 ], [ -122.454652063017164, 37.771423383312829 ], [ -122.45465274436151, 37.771428789035532 ], [ -122.454653198664559, 37.771433564096384 ], [ -122.454653426236732, 37.771442663765825 ], [ -122.454653313057619, 37.771447799232391 ], [ -122.454651951949003, 37.771462214618275 ], [ -122.454651611643555, 37.771465367985606 ], [ -122.454649115354826, 37.771477080541459 ], [ -122.454647186282926, 37.771484198187764 ], [ -122.454644349326287, 37.771493297977969 ], [ -122.454640604366091, 37.771502487899674 ], [ -122.454634703047631, 37.771514290685005 ], [ -122.454633000733836, 37.771517534201649 ], [ -122.454632773754156, 37.771517894593877 ], [ -122.454624829452683, 37.771530328129749 ], [ -122.454622105644944, 37.771533841973778 ], [ -122.454614388185462, 37.771543752816946 ], [ -122.454603606299344, 37.771555375599988 ], [ -122.454602584856062, 37.771556456789781 ], [ -122.454599747489368, 37.771559069679469 ], [ -122.454595888600949, 37.771561502417299 ], [ -122.45457091860294, 37.771565647796393 ], [ -122.454560703554179, 37.771566549150421 ], [ -122.454529603994985, 37.771562586133655 ], [ -122.454521091233019, 37.771559703394189 ], [ -122.454518367139684, 37.771558622348763 ], [ -122.454512010889346, 37.771555559334296 ], [ -122.454509173267795, 37.771554027813892 ], [ -122.454457981506181, 37.771508261082616 ], [ -122.454456959926262, 37.771507089875541 ], [ -122.454455257258886, 37.771504567256819 ], [ -122.454448900481381, 37.771492584752217 ], [ -122.454446743319465, 37.771481863430409 ], [ -122.454446629138587, 37.77147051136069 ] ] ] } },
{ "type": "Feature", "properties": { "treeID": 17, "XTOP": 47217.14, "YTOP": 23913.24, "ZTOP": 20.92 }, "geometry": { "type": "Polygon", "coordinates": [ [ [ -122.458667532671072, 37.74934035760834 ], [ -122.45866753239784, 37.749338015108073 ], [ -122.458669120844021, 37.749337204125773 ], [ -122.458671276605102, 37.749336212909384 ], [ -122.458721428967863, 37.749335037958907 ], [ -122.458730166037029, 37.749335848177573 ], [ -122.45873844927992, 37.74933701881389 ], [ -122.45874253434279, 37.749339090722742 ], [ -122.458740946586218, 37.749345757956689 ], [ -122.458740038986292, 37.749346929274139 ], [ -122.458704412075946, 37.749362248258528 ], [ -122.458701915881193, 37.749362969212164 ], [ -122.458697944622855, 37.749363780370771 ], [ -122.458695561779237, 37.749363510258092 ], [ -122.458677973873577, 37.749359367130765 ], [ -122.458674796612328, 37.749357835729867 ], [ -122.458673321454242, 37.74935711506911 ], [ -122.458669008785222, 37.74934927702008 ], [ -122.458667532671072, 37.74934035760834 ] ] ] } },
{ "type": "Feature", "properties": { "treeID": 18, "XTOP": 47225.88, "YTOP": 23908.26, "ZTOP": 30.96 }, "geometry": { "type": "Polygon", "coordinates": [ [ [ -122.458669668692409, 37.749170165793707 ], [ -122.458673299213928, 37.749166561679907 ], [ -122.458680219907734, 37.749159803957895 ], [ -122.458692359699015, 37.749149802388622 ], [ -122.458693494262718, 37.749148901343275 ], [ -122.45869576340057, 37.749147189348705 ], [ -122.458697465267093, 37.749146017972961 ], [ -122.458702798095544, 37.749145026521475 ], [ -122.458704500077985, 37.749144846203457 ], [ -122.458709833413138, 37.749148179367673 ], [ -122.458710287544761, 37.7491504317383 ], [ -122.458709606880575, 37.749151603038776 ], [ -122.458708472412056, 37.74915331494978 ], [ -122.458673188901599, 37.749193590538169 ], [ -122.45865219921015, 37.749208187659853 ], [ -122.458651518450111, 37.749208548094487 ], [ -122.458650156877567, 37.74920881848292 ], [ -122.45864618535434, 37.749207287139491 ], [ -122.458643121567263, 37.749205755729363 ], [ -122.458645050128851, 37.749202512125926 ], [ -122.458650041753586, 37.749194583297012 ], [ -122.458653104858442, 37.749190258456167 ], [ -122.458655033482174, 37.749187555429558 ], [ -122.458656962116265, 37.74918494249907 ], [ -122.458661386676795, 37.749179356211656 ], [ -122.458669668692409, 37.749170165793707 ] ] ] } },
{ "type": "Feature", "properties": { "treeID": 19, "XTOP": 47233.94, "YTOP": 23913.0, "ZTOP": 28.48 }, "geometry": { "type": "Polygon", "coordinates": [ [ [ -122.496175677174108, 37.785621260530945 ], [ -122.496188950964992, 37.785607831083674 ], [ -122.496190085518023, 37.785606749491699 ], [ -122.496193262580391, 37.785604225569358 ], [ -122.496197234132353, 37.785601431048633 ], [ -122.496202907961802, 37.785597734904258 ], [ -122.496206879737457, 37.785595300765515 ], [ -122.496212554014761, 37.785592325385316 ], [ -122.496215731917317, 37.78559115289606 ], [ -122.496235594381332, 37.785584748315962 ], [ -122.496253301261135, 37.785580506873153 ], [ -122.496274531157781, 37.785582390545095 ], [ -122.496317785780917, 37.785586427851833 ], [ -122.496331184030211, 37.785590566981945 ], [ -122.496340838230168, 37.785598221311567 ], [ -122.496341860664714, 37.785599392152257 ], [ -122.496344977479325, 37.785682188783781 ], [ -122.496343731711363, 37.785686964340599 ], [ -122.496342370676501, 37.785688946979121 ], [ -122.496330680086544, 37.78569255540053 ], [ -122.496328410025782, 37.78569318696232 ], [ -122.496325685480457, 37.785693188033548 ], [ -122.496288218992206, 37.785686805970478 ], [ -122.496245755827161, 37.785677722988709 ], [ -122.496172280295966, 37.785635406871521 ], [ -122.496168532199448, 37.785632435185349 ], [ -122.496168531022434, 37.785630543178186 ], [ -122.496175677174108, 37.785621260530945 ] ] ] } },
{ "type": "Feature", "properties": { "treeID": 20, "XTOP": 47238.2, "YTOP": 23917.75, "ZTOP": 30.77 }, "geometry": { "type": "Polygon", "coordinates": [ [ [ -122.496316113305156, 37.785635080134114 ], [ -122.496316907176407, 37.785633818483646 ], [ -122.496317587862364, 37.785633097451253 ], [ -122.49631826860454, 37.78563246651445 ], [ -122.496364574017463, 37.785613528226321 ], [ -122.496370363726385, 37.78561361604357 ], [ -122.496374451159312, 37.785614605486522 ], [ -122.49638637362294, 37.785618745191158 ], [ -122.496408516897986, 37.785628917274671 ], [ -122.496420215138244, 37.785637561844254 ], [ -122.496420783709439, 37.785639093245472 ], [ -122.496421352337023, 37.785640714742271 ], [ -122.496423172418872, 37.785646660334848 ], [ -122.496422718891836, 37.785647561469546 ], [ -122.496419882685174, 37.785650535741773 ], [ -122.496418974898376, 37.785651166768616 ], [ -122.496359846083493, 37.785677588058988 ], [ -122.496342365219377, 37.785680207708012 ], [ -122.496340775563979, 37.785679667759638 ], [ -122.49633600614797, 37.785677327149692 ], [ -122.496321015922078, 37.785668954152825 ], [ -122.496319993430674, 37.785667693216382 ], [ -122.496318856854288, 37.785665531368771 ], [ -122.496316113305156, 37.785635080134114 ] ] ] } },
{ "type": "Feature", "properties": { "treeID": 21, "XTOP": 47235.47, "YTOP": 23907.79, "ZTOP": 24.53 }, "geometry": { "type": "Polygon", "coordinates": [ [ [ -122.496326210014615, 37.785624174597089 ], [ -122.496327798375148, 37.785622642347356 ], [ -122.496334608213289, 37.785620207088407 ], [ -122.49635300619164, 37.785631912280309 ], [ -122.49639139401738, 37.785659376330727 ], [ -122.496400942258049, 37.785679103507533 ], [ -122.496402420362799, 37.785682796845052 ], [ -122.496403899537995, 37.785688201998546 ], [ -122.496405492517852, 37.785694057585197 ], [ -122.496405158653602, 37.785704779093109 ], [ -122.496404482474588, 37.78571270777222 ], [ -122.496404142864023, 37.785714239531167 ], [ -122.496403916269173, 37.785714960385206 ], [ -122.49630719257614, 37.785711304518493 ], [ -122.496293682413437, 37.785709778202126 ], [ -122.496291070041494, 37.785707616934076 ], [ -122.496288794248159, 37.785699058746118 ], [ -122.496287426018981, 37.785689509149996 ], [ -122.496326210014615, 37.785624174597089 ] ] ] } },
{ "type": "Feature", "properties": { "treeID": 22, "XTOP": 47204.3, "YTOP": 23907.68, "ZTOP": 42.22 }, "geometry": { "type": "Polygon", "coordinates": [ [ [ -122.496250530125209, 37.785687901917605 ], [ -122.496250750825936, 37.785677721028122 ], [ -122.496257788334773, 37.785676276735884 ], [ -122.496270388455386, 37.78567483025892 ], [ -122.496294688156993, 37.78568419065649 ], [ -122.496295937244014, 37.78568473073932 ], [ -122.49628833908956, 37.785697347108531 ], [ -122.496287658290328, 37.785697887949581 ], [ -122.496285842263788, 37.785698429236582 ], [ -122.496267335811936, 37.785694832680953 ], [ -122.496252916292079, 37.785691414709369 ], [ -122.496250531023577, 37.785689343446862 ], [ -122.496250530125209, 37.785687901917605 ] ] ] } },
{ "type": "Feature", "properties": { "treeID": 23, "XTOP": 47229.23, "YTOP": 23903.99, "ZTOP": 32.62 }, "geometry": { "type": "Polygon", "coordinates": [ [ [ -122.454514508336246, 37.771562496617108 ], [ -122.454512465080086, 37.771558622574922 ], [ -122.454512011015268, 37.771557631538244 ], [ -122.454511783963724, 37.771556820684523 ], [ -122.454513713477667, 37.771556730514803 ], [ -122.454515415994834, 37.771556730449575 ], [ -122.454594185916434, 37.771558799608954 ], [ -122.454595775094191, 37.771561412325902 ], [ -122.454596115659015, 37.771562403366673 ], [ -122.454595661682276, 37.771562853863514 ], [ -122.45459384576418, 37.771564475659147 ], [ -122.454586468561942, 37.771570512366715 ], [ -122.45458612807515, 37.771570782667439 ], [ -122.454578750843908, 37.77157636889541 ], [ -122.454576480909282, 37.771577810516767 ], [ -122.454573529961962, 37.77157916206869 ], [ -122.454562974341385, 37.771578982286229 ], [ -122.454530853200353, 37.771573938159477 ], [ -122.454528242645978, 37.771573487780707 ], [ -122.454514508336246, 37.771562496617108 ] ] ] } },
{ "type": "Feature", "properties": { "treeID": 24, "XTOP": 47598.24, "YTOP": 26384.09, "ZTOP": 26.71 }, "geometry": { "type": "Polygon", "coordinates": [ [ [ -122.458726310109668, 37.749352516253559 ], [ -122.4587276713671, 37.749349542979338 ], [ -122.458742760916792, 37.749336027436335 ], [ -122.458744689700083, 37.749334675850776 ], [ -122.45874548390681, 37.749334135214873 ], [ -122.458768062464145, 37.749322150747474 ], [ -122.458846124393887, 37.749292863660898 ], [ -122.458846805196686, 37.74929286360981 ], [ -122.458848280301538, 37.749293133787575 ], [ -122.458848734191491, 37.749293313945834 ], [ -122.458877446563037, 37.749336738138325 ], [ -122.458881419637748, 37.749351153225334 ], [ -122.458881646873692, 37.749353675900821 ], [ -122.458880740169562, 37.749362325200927 ], [ -122.458874500461519, 37.749370614518021 ], [ -122.458855440164896, 37.749389085665207 ], [ -122.458853511392945, 37.749390527348723 ], [ -122.458837627002637, 37.749399177772553 ], [ -122.458828323145028, 37.749403052604833 ], [ -122.458819699983323, 37.749406026423806 ], [ -122.458811190277544, 37.749408910137511 ], [ -122.458805290180479, 37.749410622405534 ], [ -122.458789518363105, 37.749411794832859 ], [ -122.458744014367184, 37.749381165521712 ], [ -122.458734028453776, 37.749374409049814 ], [ -122.458726310109668, 37.749352516253559 ] ] ] } },
{ "type": "Feature", "properties": { "treeID": 25, "XTOP": 47596.74, "YTOP": 26393.89, "ZTOP": 22.88 }, "geometry": { "type": "Polygon", "coordinates": [ [ [ -122.496309613168577, 37.785588052785016 ], [ -122.496300518210916, 37.785566973988352 ], [ -122.496300857092251, 37.785564270987116 ], [ -122.496323993417789, 37.785528584034736 ], [ -122.496326149557376, 37.785527321848583 ], [ -122.496333413195472, 37.78552443593324 ], [ -122.496339088699884, 37.785523442649691 ], [ -122.496341018525513, 37.785523351795121 ], [ -122.49636088805201, 37.785528299237022 ], [ -122.496361115153235, 37.785528389243268 ], [ -122.4963917749497, 37.78554234199413 ], [ -122.496439020545367, 37.785574667704125 ], [ -122.496443790860155, 37.7855784498392 ], [ -122.496449931960854, 37.785595835869586 ], [ -122.49645152471679, 37.785601331073387 ], [ -122.496452448461795, 37.785626197095233 ], [ -122.496448598335064, 37.785641604960837 ], [ -122.496447125585561, 37.785646470703853 ], [ -122.496431583072109, 37.785662603942171 ], [ -122.496425570259149, 37.785668822907894 ], [ -122.496416494022881, 37.785677745948156 ], [ -122.496411047525086, 37.785681892491219 ], [ -122.49640605393445, 37.785684146848048 ], [ -122.496402648985494, 37.785685319431828 ], [ -122.496400377799006, 37.785684149083451 ], [ -122.496331431042577, 37.785622550823383 ], [ -122.496326773690882, 37.785617867683357 ], [ -122.496309613168577, 37.785588052785016 ] ] ] } },
{ "type": "Feature", "properties": { "treeID": 26, "XTOP": 47621.37, "YTOP": 26394.27, "ZTOP": 12.22 }, "geometry": { "type": "Polygon", "coordinates": [ [ [ -122.49627271974029, 37.785590319669446 ], [ -122.49629915925675, 37.785572290162889 ], [ -122.496300294819363, 37.785572830290292 ], [ -122.496310288007322, 37.785577961812365 ], [ -122.496311083564677, 37.785579403029317 ], [ -122.496315857246842, 37.785588590904361 ], [ -122.49631904015213, 37.785595436918932 ], [ -122.496299975779223, 37.785607337031166 ], [ -122.496291914214083, 37.785604997713016 ], [ -122.496284533335441, 37.785601937362109 ], [ -122.496282943457416, 37.785601037030609 ], [ -122.496274423927005, 37.785592481294614 ], [ -122.496273628651096, 37.785591490555326 ], [ -122.49627271974029, 37.785590319669446 ] ] ] } },
{ "type": "Feature", "properties": { "treeID": 27, "XTOP": 47590.62, "YTOP": 26376.75, "ZTOP": 20.21 }, "geometry": { "type": "Polygon", "coordinates": [ [ [ -122.454425288247577, 37.771425193963545 ], [ -122.454429827946655, 37.771419517755916 ], [ -122.454441971802751, 37.771407084074717 ], [ -122.454548660598221, 37.771373384165621 ], [ -122.454554449203002, 37.771374374996149 ], [ -122.454556038314607, 37.7713759966596 ], [ -122.454561713756476, 37.771382483339579 ], [ -122.45456194080252, 37.771383204097411 ], [ -122.454456506040955, 37.771509072000853 ], [ -122.454449468926001, 37.771508261404342 ], [ -122.454445950274177, 37.771506279428998 ], [ -122.454427675796666, 37.771492765743247 ], [ -122.454419841119403, 37.771440600554264 ], [ -122.454425288247577, 37.771425193963545 ] ] ] } },
{ "type": "Feature", "properties": { "treeID": 28, "XTOP": 47606.99, "YTOP": 26378.7, "ZTOP": 21.36 }, "geometry": { "type": "Polygon", "coordinates": [ [ [ -122.496147716325439, 37.785566132976903 ], [ -122.496148166774034, 37.78556027658631 ], [ -122.496149297741368, 37.785553428877563 ], [ -122.496150769163947, 37.785546400844254 ], [ -122.496152468023425, 37.785540003391048 ], [ -122.496154054200574, 37.785534957415983 ], [ -122.496157567121614, 37.785524865332377 ], [ -122.496163128489499, 37.785522881050376 ], [ -122.496202752259961, 37.785529983072358 ], [ -122.496219784446453, 37.785536102893438 ], [ -122.496266685913369, 37.785562842880218 ], [ -122.496276344372617, 37.78557734447925 ], [ -122.496277594862221, 37.785580136951793 ], [ -122.496281006213337, 37.785589235267715 ], [ -122.496273969780546, 37.785592391377378 ], [ -122.496158998652049, 37.78563622293575 ], [ -122.496155587537842, 37.785627484998685 ], [ -122.496154564153301, 37.785624782531521 ], [ -122.496152402797321, 37.785617665825612 ], [ -122.496150923361668, 37.785611810190993 ], [ -122.49615024043328, 37.785608927399231 ], [ -122.496149443029893, 37.785604513027067 ], [ -122.496149100949481, 37.7856020805798 ], [ -122.496147390379647, 37.785589648056707 ], [ -122.496147041912891, 37.785576944713299 ], [ -122.496147716325439, 37.785566132976903 ] ] ] } },
{ "type": "Feature", "properties": { "treeID": 29, "XTOP": 50849.98, "YTOP": 27296.75, "ZTOP": 15.68 }, "geometry": { "type": "Polygon", "coordinates": [ [ [ -122.458881857407917, 37.749216459424879 ], [ -122.458884013033412, 37.749214387050586 ], [ -122.458885147725042, 37.749214567157402 ], [ -122.458885942026413, 37.749214837386027 ], [ -122.458886396056073, 37.749216188794286 ], [ -122.4588866231948, 37.749217900604322 ], [ -122.458885942522002, 37.749218981809641 ], [ -122.4588828787941, 37.749217990982743 ], [ -122.458882197938181, 37.749217540553218 ], [ -122.458881857418689, 37.749216549521051 ], [ -122.458881857407917, 37.749216459424879 ] ] ] } },
{ "type": "Feature", "properties": { "treeID": 30, "XTOP": 50860.76, "YTOP": 27298.41, "ZTOP": 15.83 }, "geometry": { "type": "Polygon", "coordinates": [ [ [ -122.454563983951218, 37.771385366318164 ], [ -122.454563075910954, 37.771384825778348 ], [ -122.454556605918455, 37.771377618362557 ], [ -122.454554108728033, 37.771374825488444 ], [ -122.45455456264861, 37.771373474033474 ], [ -122.454555243532184, 37.771371491898968 ], [ -122.454559556454228, 37.771369689815629 ], [ -122.454561712964974, 37.771369599636344 ], [ -122.454564323517928, 37.771370140110228 ], [ -122.454623912713913, 37.771390139060721 ], [ -122.454639803328106, 37.771397976773081 ], [ -122.454640370860758, 37.771398427229869 ], [ -122.45464774882538, 37.771404913838637 ], [ -122.454648316369415, 37.771405544487024 ], [ -122.454649111011179, 37.771407706755532 ], [ -122.454649792191574, 37.771410499699272 ], [ -122.454650586918092, 37.771414013405149 ], [ -122.454650700548797, 37.771416085604677 ], [ -122.454650587104297, 37.771416986567417 ], [ -122.454648884629833, 37.771417617305389 ], [ -122.454563983951218, 37.771385366318164 ] ] ] } },
{ "type": "Feature", "properties": { "treeID": 31, "XTOP": 50871.46, "YTOP": 27300.08, "ZTOP": 15.69 }, "geometry": { "type": "Polygon", "coordinates": [ [ [ -122.496400032724551, 37.785676941571289 ], [ -122.496447226364893, 37.785626109058263 ], [ -122.496450063697324, 37.785624936696941 ], [ -122.496460734936221, 37.785625112680847 ], [ -122.496486850330442, 37.785633391175679 ], [ -122.496517285689819, 37.785651398284216 ], [ -122.496517172844804, 37.785652479475985 ], [ -122.496515025683365, 37.78566806686257 ], [ -122.496489618104974, 37.785702403313763 ], [ -122.49648292257713, 37.78570609987495 ], [ -122.496440700517411, 37.785719540768355 ], [ -122.496438657220409, 37.785719721764877 ], [ -122.496422650285382, 37.785719367690113 ], [ -122.496420606762939, 37.785719188304014 ], [ -122.496410956764706, 37.785718291149436 ], [ -122.496409253641588, 37.785717841342262 ], [ -122.496407323134946, 37.785716851051028 ], [ -122.496404256837437, 37.785714960251077 ], [ -122.496398689490889, 37.785707394413144 ], [ -122.496400032724551, 37.785676941571289 ] ] ] } },
{ "type": "Feature", "properties": { "treeID": 32, "XTOP": 50838.91, "YTOP": 27294.96, "ZTOP": 15.77 }, "geometry": { "type": "Polygon", "coordinates": [ [ [ -122.496273364530353, 37.785532027561509 ], [ -122.496274158738288, 37.785531306484792 ], [ -122.496275634024869, 37.785530495044959 ], [ -122.49627960674961, 37.785529592528626 ], [ -122.496285282255172, 37.785528599247662 ], [ -122.496314114770058, 37.785525074189593 ], [ -122.496320700253932, 37.785526963608547 ], [ -122.496321041046272, 37.785527323856975 ], [ -122.496328199767078, 37.78553822261042 ], [ -122.496319808156386, 37.7855527313016 ], [ -122.496313570827979, 37.785563004652097 ], [ -122.496295310393606, 37.785589770221975 ], [ -122.496292700498572, 37.785591573159437 ], [ -122.496289976294136, 37.785592114803315 ], [ -122.496285889650252, 37.785592386695534 ], [ -122.49627952952109, 37.785587794318083 ], [ -122.496277030339357, 37.785585092431624 ], [ -122.496271463577244, 37.785578427543292 ], [ -122.496263850433806, 37.785566988391281 ], [ -122.49626134793985, 37.785558970865225 ], [ -122.496273364530353, 37.785532027561509 ] ] ] } },
{ "type": "Feature", "properties": { "treeID": 33, "XTOP": 43910.88, "YTOP": 27962.32, "ZTOP": 20.02 }, "geometry": { "type": "Polygon", "coordinates": [ [ [ -122.496205052157833, 37.7855772823618 ], [ -122.496206980638746, 37.785575029215501 ], [ -122.496218667737509, 37.785565834880309 ], [ -122.496220370070418, 37.785565023352127 ], [ -122.496234561340458, 37.785566549409694 ], [ -122.496245690590499, 37.785573031925509 ], [ -122.496252732413097, 37.785578524993205 ], [ -122.496253186896325, 37.785579155484029 ], [ -122.496252166035646, 37.785580507318791 ], [ -122.496249215459954, 37.78558213019781 ], [ -122.496233211361783, 37.785586280876274 ], [ -122.49621641265999, 37.785590521959833 ], [ -122.496213801472663, 37.785590252697212 ], [ -122.496210849661566, 37.785589893472505 ], [ -122.496206989333388, 37.785588994030405 ], [ -122.496204941103329, 37.785581246611848 ], [ -122.496205052157833, 37.7855772823618 ] ] ] } },
{ "type": "Feature", "properties": { "treeID": 34, "XTOP": 43922.31, "YTOP": 27964.3, "ZTOP": 23.45 }, "geometry": { "type": "Polygon", "coordinates": [ [ [ -122.458867805195069, 37.74936475877125 ], [ -122.458879377023294, 37.74934944155212 ], [ -122.458880851946347, 37.749348180094692 ], [ -122.458895603072349, 37.749351422444228 ], [ -122.458896964754473, 37.749352053014597 ], [ -122.458935659448755, 37.74937178114741 ], [ -122.458937588511205, 37.749372772058962 ], [ -122.458937815543237, 37.749373582907218 ], [ -122.458937929086346, 37.749374213571755 ], [ -122.458937248401995, 37.749375204681186 ], [ -122.458930895286045, 37.74938394449066 ], [ -122.458921252028475, 37.749396108203072 ], [ -122.458918869334411, 37.74939709944119 ], [ -122.458884262780998, 37.749405210709511 ], [ -122.458868604540839, 37.749407284100506 ], [ -122.458862250361094, 37.749407194482274 ], [ -122.458853284791132, 37.749393320346826 ], [ -122.458852489929853, 37.749388365117518 ], [ -122.458852943530616, 37.749386112679353 ], [ -122.458867805195069, 37.74936475877125 ] ] ] } },
{ "type": "Feature", "properties": { "treeID": 35, "XTOP": 43924.17, "YTOP": 27960.06, "ZTOP": 23.78 }, "geometry": { "type": "Polygon", "coordinates": [ [ [ -122.458719959243837, 37.749380626726833 ], [ -122.458735162745072, 37.749371165503845 ], [ -122.458758083320376, 37.749372785533893 ], [ -122.458762622095378, 37.749373505965863 ], [ -122.458777601475376, 37.749387920237524 ], [ -122.458777714985217, 37.749388280613736 ], [ -122.458778963689355, 37.749393055617425 ], [ -122.458775561171066, 37.749405759429884 ], [ -122.458755364278062, 37.749408193528318 ], [ -122.458751279242861, 37.749406391908416 ], [ -122.458734144758978, 37.749398554813133 ], [ -122.458730740539139, 37.74939684323823 ], [ -122.458719959243837, 37.749380626726833 ] ] ] } },
{ "type": "Feature", "properties": { "treeID": 36, "XTOP": 43918.28, "YTOP": 27953.66, "ZTOP": 21.65 }, "geometry": { "type": "Polygon", "coordinates": [ [ [ -122.496440041684465, 37.785573766345635 ], [ -122.496443106285611, 37.785572954277313 ], [ -122.496455932414989, 37.785569885970595 ], [ -122.496501585804452, 37.785597527311765 ], [ -122.496508401958167, 37.785605182747666 ], [ -122.496517388313464, 37.785634009792716 ], [ -122.496518641184949, 37.785640586276969 ], [ -122.496520013339747, 37.785656352465388 ], [ -122.496516834987432, 37.785656804198204 ], [ -122.496452903567373, 37.785627818636627 ], [ -122.496449496253391, 37.785625207207453 ], [ -122.49644801837303, 37.785621874252797 ], [ -122.496440041684465, 37.785573766345635 ] ] ] } },
{ "type": "Feature", "properties": { "treeID": 37, "XTOP": 43925.36, "YTOP": 27962.53, "ZTOP": 22.82 }, "geometry": { "type": "Polygon", "coordinates": [ [ [ -122.458791901741563, 37.749416569751759 ], [ -122.458798028400722, 37.749411704101774 ], [ -122.458799276434448, 37.74941080304697 ], [ -122.45884590872069, 37.749387464649978 ], [ -122.458853170776436, 37.749388725451041 ], [ -122.458856347967512, 37.749389626173979 ], [ -122.458883127978751, 37.749404129641093 ], [ -122.458887440091686, 37.749407102489414 ], [ -122.458886760742416, 37.749419265522725 ], [ -122.458886193836733, 37.749422869411994 ], [ -122.458884265312264, 37.749426383307757 ], [ -122.458881428758147, 37.749427464675485 ], [ -122.458815052718805, 37.749447290814274 ], [ -122.458814031480458, 37.749447020602155 ], [ -122.458811194582694, 37.749445218891005 ], [ -122.458798938795496, 37.74943413797849 ], [ -122.458798257895424, 37.749433327163864 ], [ -122.458791901741563, 37.749416569751759 ] ] ] } },
{ "type": "Feature", "properties": { "treeID": 38, "XTOP": 43906.86, "YTOP": 27954.92, "ZTOP": 18.39 }, "geometry": { "type": "Polygon", "coordinates": [ [ [ -122.458882560513018, 37.749403048529899 ], [ -122.458890502070489, 37.749393407641605 ], [ -122.458947346965971, 37.749375023722685 ], [ -122.458961416959809, 37.749375473134592 ], [ -122.458974810361298, 37.749410789811748 ], [ -122.458966301650221, 37.749421872287442 ], [ -122.458963011543318, 37.74942556648039 ], [ -122.458918875670989, 37.749449895792459 ], [ -122.45891649294272, 37.749450616742038 ], [ -122.458890396116004, 37.749456204675475 ], [ -122.458888240268124, 37.74945647512655 ], [ -122.458878595637827, 37.749457286718915 ], [ -122.458877347496639, 37.749457286812927 ], [ -122.458863388451377, 37.749435844976659 ], [ -122.458862934399306, 37.749434313376028 ], [ -122.458864068653625, 37.74943079954037 ], [ -122.458882560513018, 37.749403048529899 ] ] ] } },
{ "type": "Feature", "properties": { "treeID": 39, "XTOP": 43917.57, "YTOP": 27960.52, "ZTOP": 23.72 }, "geometry": { "type": "Polygon", "coordinates": [ [ [ -122.41776998077637, 37.779680308254463 ], [ -122.417770889667096, 37.779678506589129 ], [ -122.417771797814567, 37.779678416741817 ], [ -122.417772705805547, 37.77967868727724 ], [ -122.417775316069481, 37.77967994933087 ], [ -122.417776109882084, 37.779681751461887 ], [ -122.417775882385641, 37.779682832548026 ], [ -122.417772249912943, 37.779682921650291 ], [ -122.417771455396334, 37.779682741241587 ], [ -122.41776998077637, 37.779680308254463 ] ] ] } },
{ "type": "Feature", "properties": { "treeID": 40, "XTOP": 43921.88, "YTOP": 27951.28, "ZTOP": 21.7 }, "geometry": { "type": "Polygon", "coordinates": [ [ [ -122.417520577798371, 37.779711593075845 ], [ -122.417522961780918, 37.77971114325446 ], [ -122.417527161468556, 37.779711865177461 ], [ -122.417527274942728, 37.779711955304421 ], [ -122.417527614852915, 37.779713396929232 ], [ -122.417525117041393, 37.779714567484895 ], [ -122.417521371210924, 37.779714296165409 ], [ -122.417520577798371, 37.779711593075845 ] ] ] } },
{ "type": "Feature", "properties": { "treeID": 41, "XTOP": 43923.82, "YTOP": 27947.79, "ZTOP": 19.83 }, "geometry": { "type": "Polygon", "coordinates": [ [ [ -122.417398997934285, 37.779727055960812 ], [ -122.417403879415431, 37.779726156354322 ], [ -122.417409214476251, 37.779726338021412 ], [ -122.417410349572833, 37.77972642843104 ], [ -122.417413073780978, 37.779726699471539 ], [ -122.417413527519031, 37.779727420362583 ], [ -122.417411824419219, 37.779728320848541 ], [ -122.417403309592245, 37.779731291651316 ], [ -122.417400698501936, 37.779731921598852 ], [ -122.417392980248295, 37.77973038783648 ], [ -122.417396273093033, 37.779728226450942 ], [ -122.417398997934285, 37.779727055960812 ] ] ] } },
{ "type": "Feature", "properties": { "treeID": 42, "XTOP": 43932.98, "YTOP": 27953.79, "ZTOP": 21.23 }, "geometry": { "type": "Polygon", "coordinates": [ [ [ -122.417642838457681, 37.779696670826496 ], [ -122.417648401486488, 37.779694690248668 ], [ -122.417658390680458, 37.779694692990809 ], [ -122.417661795734233, 37.779695504786602 ], [ -122.417659865022245, 37.779697756649121 ], [ -122.41765066991249, 37.779698925369161 ], [ -122.417641134300965, 37.779700003899286 ], [ -122.417640340216508, 37.779698832437177 ], [ -122.417639999950737, 37.779698201673845 ], [ -122.417640567832805, 37.779697481064233 ], [ -122.417642838457681, 37.779696670826496 ] ] ] } },
{ "type": "Feature", "properties": { "treeID": 43, "XTOP": 43929.11, "YTOP": 27950.39, "ZTOP": 18.88 }, "geometry": { "type": "Polygon", "coordinates": [ [ [ -122.454296813481093, 37.771568631271911 ], [ -122.454297834897645, 37.771567009509816 ], [ -122.454299197031546, 37.771569081664097 ], [ -122.454299651182282, 37.771571604330603 ], [ -122.454297494644479, 37.771571334121795 ], [ -122.454296813481093, 37.771568631271911 ] ] ] } }
]
}
