{
"type": "FeatureCollection",
"name": "treetops",
"crs": { "type": "name", "properties": { "name": "urn:ogc:def:crs:OGC:1.3:CRS84" } },
"features": [
{ "type": "Feature", "properties": { "treeID": 1, "Z": 26.71, "npoints": 23127, "convhull_area": 242.537 }, "geometry": { "type": "Point", "coordinates": [ -122.454560017207882, 37.771479606705981, 26.71 ] } },
{ "type": "Feature", "properties": { "treeID": 2, "Z": 26.55, "npoints": 18813, "convhull_area": 178.048 }, "geometry": { "type": "Point", "coordinates": [ -122.454557749084231, 37.771510509661802, 26.55 ] } },
{ "type": "Feature", "properties": { "treeID": 3, "Z": 23.08, "npoints": 8051, "convhull_area": 116.186 }, "geometry": { "type": "Point", "coordinates": [ -122.454670568464664, 37.771499603649488, 23.08 ] } },
{ "type": "Feature", "properties": { "treeID": 4, "Z": 21.36, "npoints": 3645, "convhull_area": 83.982 }, "geometry": { "type": "Point", "coordinates": [ -122.454460700893364, 37.771431048857103, 21.36 ] } },
{ "type": "Feature", "properties": { "treeID": 5, "Z": 20.24, "npoints": 1452, "convhull_area": 23.857 }, "geometry": { "type": "Point", "coordinates": [ -122.454654332030699, 37.771407346166121, 20.24 ] } },
{ "type": "Feature", "properties": { "treeID": 6, "Z": 19.15, "npoints": 76, "convhull_area": 1.161 }, "geometry": { "type": "Point", "coordinates": [ -122.454614050542972, 37.771589791796323, 19.15 ] } },
{ "type": "Feature", "properties": { "treeID": 7, "Z": 17.82, "npoints": 1059, "convhull_area": 10.065 }, "geometry": { "type": "Point", "coordinates": [ -122.454510090246217, 37.771701694833119, 17.82 ] } },
{ "type": "Feature", "properties": { "treeID": 8, "Z": 16.87, "npoints": 6, "convhull_area": 0.019 }, "geometry": { "type": "Point", "coordinates": [ -122.454550136148058, 37.771374014779454, 16.87 ] } },
{ "type": "Feature", "properties": { "treeID": 9, "Z": 6.05, "npoints": 97, "convhull_area": 3.785 }, "geometry": { "type": "Point", "coordinates": [ -122.454587044371962, 37.771704935312378, 6.05 ] } },
{ "type": "Feature", "properties": { "treeID": 10, "Z": 2.95, "npoints": 20, "convhull_area": 0.141 }, "geometry": { "type": "Point", "coordinates": [ -122.45468135994885, 37.77164051309024, 2.95 ] } }
]
}
